ONEWEB-0195             
1 48240U 21031AG  24108.49835970 -.00000583  00000+0 -16065-2 0  9992
2 48240  87.8909  87.0245 0002233  97.3413 262.7971 13.14504014144279
ONEWEB-0201             
1 48241U 21031AH  24108.48727282 -.00000018  00000+0 -84075-4 0  9999
2 48241  87.8915  87.0593 0002070  89.0032 271.1335 13.14502807144509
ONEWEB-0207             
1 48242U 21031AJ  24108.46665163  .00000339  00000+0  87898-3 0  9996
2 48242  87.8912  87.0303 0002202  82.9997 277.1383 13.14501155144419
ONEWEB-0208             
1 48243U 21031AK  24108.44842032  .00000101  00000+0  23881-3 0  9996
2 48243  87.8911  87.0484 0002090  92.6209 267.5160 13.14502641144426
ONEWEB-0200             
1 48244U 21031AL  24108.48806080 -.00000084  00000+0 -26024-3 0  9998
2 48244  87.8911  87.0392 0002037  93.0416 267.0946 13.14502863144356
ONEWEB-0217             
1 48245U 21031AM  24108.42780330 -.00000087  00000+0 -26981-3 0  9997
2 48245  87.8911  87.0359 0002053  97.0717 263.0647 13.14501409144298
ONEWEB-0211             
1 48767U 21045A   24108.40303757 -.00000135  00000+0 -39137-3 0  9994
2 48767  87.9029  56.5407 0001914  82.6372 277.4975 13.15548817140446
ONEWEB-0223             
1 48768U 21045B   24108.34914844 -.00000002  00000+0 -40669-4 0  9999
2 48768  87.9029  56.5570 0001342  97.7699 262.3584 13.15545992140420
